<?xml version="1.0" encoding="UTF-8"?>
<ndm xmlns:xsi="http://www.w3.org/2001/XMLSchema-instance" xsi:noNamespaceSchemaLocation="https://sanaregistry.org/r/ndmxml_unqualified/ndmxml-2.0.0-master-2.0.xsd">
<omm id="CCSDS_OMM_VERS" version="2.0">
<header><CREATION_DATE/><ORIGINATOR/></header><body><segment><metadata><OBJECT_NAME>KUIPER-00071</OBJECT_NAME><OBJECT_ID>2025-151C</OBJECT_ID><CENTER_NAME>EARTH</CENTER_NAME><REF_FRAME>TEME</REF_FRAME><TIME_SYSTEM>UTC</TIME_SYSTEM><MEAN_ELEMENT_THEORY>SGP4</MEAN_ELEMENT_THEORY></metadata><data><meanElements><EPOCH>2025-11-06T21:16:59.177856</EPOCH><MEAN_MOTION>14.79940117</MEAN_MOTION><ECCENTRICITY>.0007552</ECCENTRICITY><INCLINATION>51.8980</INCLINATION><RA_OF_ASC_NODE>126.1044</RA_OF_ASC_NODE><ARG_OF_PERICENTER>172.4022</ARG_OF_PERICENTER><MEAN_ANOMALY>187.7056</MEAN_ANOMALY></meanElements><tleParameters><EPHEMERIS_TYPE>0</EPHEMERIS_TYPE><CLASSIFICATION_TYPE>U</CLASSIFICATION_TYPE><NORAD_CAT_ID>64818</NORAD_CAT_ID><ELEMENT_SET_NO>999</ELEMENT_SET_NO><REV_AT_EPOCH>1708</REV_AT_EPOCH><BSTAR>-.14812E-2</BSTAR><MEAN_MOTION_DOT>-.11503E-3</MEAN_MOTION_DOT><MEAN_MOTION_DDOT>0</MEAN_MOTION_DDOT></tleParameters></data></segment></body></omm>
<omm id="CCSDS_OMM_VERS" version="2.0">
<header><CREATION_DATE/><ORIGINATOR/></header><body><segment><metadata><OBJECT_NAME>KUIPER-00072</OBJECT_NAME><OBJECT_ID>2025-151D</OBJECT_ID><CENTER_NAME>EARTH</CENTER_NAME><REF_FRAME>TEME</REF_FRAME><TIME_SYSTEM>UTC</TIME_SYSTEM><MEAN_ELEMENT_THEORY>SGP4</MEAN_ELEMENT_THEORY></metadata><data><meanElements><EPOCH>2025-11-07T08:00:01.999872</EPOCH><MEAN_MOTION>14.86585474</MEAN_MOTION><ECCENTRICITY>.00022555</ECCENTRICITY><INCLINATION>51.8978</INCLINATION><RA_OF_ASC_NODE>104.2733</RA_OF_ASC_NODE><ARG_OF_PERICENTER>180.0730</ARG_OF_PERICENTER><MEAN_ANOMALY>34.1689</MEAN_ANOMALY></meanElements><tleParameters><EPHEMERIS_TYPE>0</EPHEMERIS_TYPE><CLASSIFICATION_TYPE>U</CLASSIFICATION_TYPE><NORAD_CAT_ID>64819</NORAD_CAT_ID><ELEMENT_SET_NO>999</ELEMENT_SET_NO><REV_AT_EPOCH>576</REV_AT_EPOCH><BSTAR>-.6003918E-3</BSTAR><MEAN_MOTION_DOT>-.5606E-4</MEAN_MOTION_DOT><MEAN_MOTION_DDOT>0</MEAN_MOTION_DDOT></tleParameters></data></segment></body></omm>
<omm id="CCSDS_OMM_VERS" version="2.0">
<header><CREATION_DATE/><ORIGINATOR/></header><body><segment><metadata><OBJECT_NAME>KUIPER-00073</OBJECT_NAME><OBJECT_ID>2025-151E</OBJECT_ID><CENTER_NAME>EARTH</CENTER_NAME><REF_FRAME>TEME</REF_FRAME><TIME_SYSTEM>UTC</TIME_SYSTEM><MEAN_ELEMENT_THEORY>SGP4</MEAN_ELEMENT_THEORY></metadata><data><meanElements><EPOCH>2025-11-06T22:04:40.625760</EPOCH><MEAN_MOTION>14.80040352</MEAN_MOTION><ECCENTRICITY>.0013393</ECCENTRICITY><INCLINATION>51.8987</INCLINATION><RA_OF_ASC_NODE>125.9524</RA_OF_ASC_NODE><ARG_OF_PERICENTER>202.2782</ARG_OF_PERICENTER><MEAN_ANOMALY>157.7600</MEAN_ANOMALY></meanElements><tleParameters><EPHEMERIS_TYPE>0</EPHEMERIS_TYPE><CLASSIFICATION_TYPE>U</CLASSIFICATION_TYPE><NORAD_CAT_ID>64820</NORAD_CAT_ID><ELEMENT_SET_NO>999</ELEMENT_SET_NO><REV_AT_EPOCH>1827</REV_AT_EPOCH><BSTAR>.53213E-3</BSTAR><MEAN_MOTION_DOT>.3851E-4</MEAN_MOTION_DOT><MEAN_MOTION_DDOT>0</MEAN_MOTION_DDOT></tleParameters></data></segment></body></omm>
<omm id="CCSDS_OMM_VERS" version="2.0">
<header><CREATION_DATE/><ORIGINATOR/></header><body><segment><metadata><OBJECT_NAME>KUIPER-00074</OBJECT_NAME><OBJECT_ID>2025-151F</OBJECT_ID><CENTER_NAME>EARTH</CENTER_NAME><REF_FRAME>TEME</REF_FRAME><TIME_SYSTEM>UTC</TIME_SYSTEM><MEAN_ELEMENT_THEORY>SGP4</MEAN_ELEMENT_THEORY></metadata><data><meanElements><EPOCH>2025-11-06T20:47:39.817248</EPOCH><MEAN_MOTION>14.79952987</MEAN_MOTION><ECCENTRICITY>.001224</ECCENTRICITY><INCLINATION>51.8996</INCLINATION><RA_OF_ASC_NODE>113.7045</RA_OF_ASC_NODE><ARG_OF_PERICENTER>221.5269</ARG_OF_PERICENTER><MEAN_ANOMALY>138.4764</MEAN_ANOMALY></meanElements><tleParameters><EPHEMERIS_TYPE>0</EPHEMERIS_TYPE><CLASSIFICATION_TYPE>U</CLASSIFICATION_TYPE><NORAD_CAT_ID>64821</NORAD_CAT_ID><ELEMENT_SET_NO>999</ELEMENT_SET_NO><REV_AT_EPOCH>1725</REV_AT_EPOCH><BSTAR>.22773E-3</BSTAR><MEAN_MOTION_DOT>.1515E-4</MEAN_MOTION_DOT><MEAN_MOTION_DDOT>0</MEAN_MOTION_DDOT></tleParameters></data></segment></body></omm>
<omm id="CCSDS_OMM_VERS" version="2.0">
<header><CREATION_DATE/><ORIGINATOR/></header><body><segment><metadata><OBJECT_NAME>KUIPER-00075</OBJECT_NAME><OBJECT_ID>2025-151G</OBJECT_ID><CENTER_NAME>EARTH</CENTER_NAME><REF_FRAME>TEME</REF_FRAME><TIME_SYSTEM>UTC</TIME_SYSTEM><MEAN_ELEMENT_THEORY>SGP4</MEAN_ELEMENT_THEORY></metadata><data><meanElements><EPOCH>2025-11-06T21:16:32.875968</EPOCH><MEAN_MOTION>15.39856987</MEAN_MOTION><ECCENTRICITY>.0006162</ECCENTRICITY><INCLINATION>51.8708</INCLINATION><RA_OF_ASC_NODE>98.1680</RA_OF_ASC_NODE><ARG_OF_PERICENTER>184.9072</ARG_OF_PERICENTER><MEAN_ANOMALY>175.1857</MEAN_ANOMALY></meanElements><tleParameters><EPHEMERIS_TYPE>0</EPHEMERIS_TYPE><CLASSIFICATION_TYPE>U</CLASSIFICATION_TYPE><NORAD_CAT_ID>64822</NORAD_CAT_ID><ELEMENT_SET_NO>999</ELEMENT_SET_NO><REV_AT_EPOCH>1747</REV_AT_EPOCH><BSTAR>.11712E-2</BSTAR><MEAN_MOTION_DOT>.47176E-3</MEAN_MOTION_DOT><MEAN_MOTION_DDOT>0</MEAN_MOTION_DDOT></tleParameters></data></segment></body></omm>
<omm id="CCSDS_OMM_VERS" version="2.0">
<header><CREATION_DATE/><ORIGINATOR/></header><body><segment><metadata><OBJECT_NAME>KUIPER-00076</OBJECT_NAME><OBJECT_ID>2025-151H</OBJECT_ID><CENTER_NAME>EARTH</CENTER_NAME><REF_FRAME>TEME</REF_FRAME><TIME_SYSTEM>UTC</TIME_SYSTEM><MEAN_ELEMENT_THEORY>SGP4</MEAN_ELEMENT_THEORY></metadata><data><meanElements><EPOCH>2025-11-06T12:37:44.020416</EPOCH><MEAN_MOTION>14.79947293</MEAN_MOTION><ECCENTRICITY>.00039927</ECCENTRICITY><INCLINATION>51.8987</INCLINATION><RA_OF_ASC_NODE>117.7081</RA_OF_ASC_NODE><ARG_OF_PERICENTER>209.4183</ARG_OF_PERICENTER><MEAN_ANOMALY>150.6555</MEAN_ANOMALY></meanElements><tleParameters><EPHEMERIS_TYPE>0</EPHEMERIS_TYPE><CLASSIFICATION_TYPE>U</CLASSIFICATION_TYPE><NORAD_CAT_ID>64823</NORAD_CAT_ID><ELEMENT_SET_NO>999</ELEMENT_SET_NO><REV_AT_EPOCH>1717</REV_AT_EPOCH><BSTAR>.58359308E-3</BSTAR><MEAN_MOTION_DOT>.4232E-4</MEAN_MOTION_DOT><MEAN_MOTION_DDOT>0</MEAN_MOTION_DDOT></tleParameters></data></segment></body></omm>
<omm id="CCSDS_OMM_VERS" version="2.0">
<header><CREATION_DATE/><ORIGINATOR/></header><body><segment><metadata><OBJECT_NAME>KUIPER-00077</OBJECT_NAME><OBJECT_ID>2025-151J</OBJECT_ID><CENTER_NAME>EARTH</CENTER_NAME><REF_FRAME>TEME</REF_FRAME><TIME_SYSTEM>UTC</TIME_SYSTEM><MEAN_ELEMENT_THEORY>SGP4</MEAN_ELEMENT_THEORY></metadata><data><meanElements><EPOCH>2025-11-06T12:30:03.424608</EPOCH><MEAN_MOTION>14.79945892</MEAN_MOTION><ECCENTRICITY>.00063728</ECCENTRICITY><INCLINATION>51.9003</INCLINATION><RA_OF_ASC_NODE>122.7338</RA_OF_ASC_NODE><ARG_OF_PERICENTER>162.7318</ARG_OF_PERICENTER><MEAN_ANOMALY>197.3862</MEAN_ANOMALY></meanElements><tleParameters><EPHEMERIS_TYPE>0</EPHEMERIS_TYPE><CLASSIFICATION_TYPE>U</CLASSIFICATION_TYPE><NORAD_CAT_ID>64824</NORAD_CAT_ID><ELEMENT_SET_NO>999</ELEMENT_SET_NO><REV_AT_EPOCH>1710</REV_AT_EPOCH><BSTAR>.52516106E-3</BSTAR><MEAN_MOTION_DOT>.3786E-4</MEAN_MOTION_DOT><MEAN_MOTION_DDOT>0</MEAN_MOTION_DDOT></tleParameters></data></segment></body></omm>
<omm id="CCSDS_OMM_VERS" version="2.0">
<header><CREATION_DATE/><ORIGINATOR/></header><body><segment><metadata><OBJECT_NAME>KUIPER-00078</OBJECT_NAME><OBJECT_ID>2025-151K</OBJECT_ID><CENTER_NAME>EARTH</CENTER_NAME><REF_FRAME>TEME</REF_FRAME><TIME_SYSTEM>UTC</TIME_SYSTEM><MEAN_ELEMENT_THEORY>SGP4</MEAN_ELEMENT_THEORY></metadata><data><meanElements><EPOCH>2025-11-06T21:28:38.191008</EPOCH><MEAN_MOTION>14.79934517</MEAN_MOTION><ECCENTRICITY>.00072</ECCENTRICITY><INCLINATION>51.8942</INCLINATION><RA_OF_ASC_NODE>118.5766</RA_OF_ASC_NODE><ARG_OF_PERICENTER>227.0516</ARG_OF_PERICENTER><MEAN_ANOMALY>132.9843</MEAN_ANOMALY></meanElements><tleParameters><EPHEMERIS_TYPE>0</EPHEMERIS_TYPE><CLASSIFICATION_TYPE>U</CLASSIFICATION_TYPE><NORAD_CAT_ID>64825</NORAD_CAT_ID><ELEMENT_SET_NO>999</ELEMENT_SET_NO><REV_AT_EPOCH>1719</REV_AT_EPOCH><BSTAR>.93698E-3</BSTAR><MEAN_MOTION_DOT>.6931E-4</MEAN_MOTION_DOT><MEAN_MOTION_DDOT>0</MEAN_MOTION_DDOT></tleParameters></data></segment></body></omm>

</ndm>
