KUIPER-00071            
1 64818U 25151C   25310.88679604 -.00011503  00000+0 -14812-2 0  9999
2 64818  51.8980 126.1044 0007552 172.4022 187.7056 14.79940117 17088
KUIPER-00072            
1 64819U 25151D   25311.33335648 -.00005606  00000+0 -60039-3 0  9998
2 64819  51.8978 104.2733 0002255 180.0730  34.1689 14.86585474  5762
KUIPER-00073            
1 64820U 25151E   25310.91991465  .00003851  00000+0  53213-3 0  9992
2 64820  51.8987 125.9524 0013393 202.2782 157.7600 14.80040352 18271
KUIPER-00074            
1 64821U 25151F   25310.86643307  .00001515  00000+0  22773-3 0  9998
2 64821  51.8996 113.7045 0012240 221.5269 138.4764 14.79952987 17257
KUIPER-00075            
1 64822U 25151G   25310.88649162  .00047176  00000+0  11712-2 0  9999
2 64822  51.8708  98.1680 0006162 184.9072 175.1857 15.39856987 17475
KUIPER-00076            
1 64823U 25151H   25310.52620394  .00004232  00000+0  58359-3 0  9992
2 64823  51.8987 117.7081 0003992 209.4183 150.6555 14.79947293 17176
KUIPER-00077            
1 64824U 25151J   25310.52087297  .00003786  00000+0  52516-3 0  9994
2 64824  51.9003 122.7338 0006372 162.7318 197.3862 14.79945892 17109
KUIPER-00078            
1 64825U 25151K   25310.89488647  .00006931  00000+0  93698-3 0  9990
2 64825  51.8942 118.5766 0007200 227.0516 132.9843 14.79934517 17190
